GLOBALSTAR M068         
1 32266U 07048D   25098.92002351 -.00000016  00000+0  48749-3 0  9996
2 32266  51.9867 153.4065 0000678 356.9180 175.8562 12.62820169809091
GLOBALSTAR M079         
1 37188U 10054A   25098.95913130 -.00000077  00000+0  14900-3 0  9993
2 37188  52.0066 350.5277 0000918  95.8902 275.6386 12.62272744667719
GLOBALSTAR M074         
1 37189U 10054B   25099.17866766 -.00000068  00000+0  19907-3 0  9993
2 37189  52.0046 349.1943 0000566  86.2544  81.9541 12.62273629668419
GLOBALSTAR M076         
1 37190U 10054C   25099.12152263 -.00000073  00000+0  17047-3 0  9999
2 37190  52.0058 349.5292 0000688 106.0079  45.0078 12.62260599668412
GLOBALSTAR M077         
1 37191U 10054D   25098.86480633 -.00000070  00000+0  18796-3 0  9994
2 37191  52.0080 307.1510 0000800  95.1139  26.9432 12.62273039668394
GLOBALSTAR M075         
1 37192U 10054E   25099.21282873 -.00000079  00000+0  13895-3 0  9995
2 37192  51.9970  31.5452 0000506  73.5396  71.7378 12.62263177667660
GLOBALSTAR M073         
1 37193U 10054F   25098.86720689 -.00000058  00000+0  25618-3 0  9991
2 37193  52.0066 306.3698 0000824 102.0121 270.1954 12.62270244669087
GLOBALSTAR M083         
1 37739U 11033A   25098.83119103 -.00000078  00000+0  14452-3 0  9991
2 37739  51.9851 255.3022 0000895 101.3007  48.1810 12.62262524638093
GLOBALSTAR M088         
1 37740U 11033B   25098.88887564 -.00000085  00000+0  10736-3 0  9990
2 37740  51.9717 160.6755 0000428 112.5136  60.0624 12.62265145633640
GLOBALSTAR M091         
1 37741U 11033C   25099.11025649 -.00000079  00000+0  13684-3 0  9994
2 37741  51.9976 123.4330 0000520  84.7316 313.5022 12.62266885634727
GLOBALSTAR M085         
1 37742U 11033D   25099.24998848 -.00000090  00000+0  74429-4 0  9997
2 37742  51.9862  74.1041 0000578  73.3531 300.3281 12.62267112635488
GLOBALSTAR M081         
1 37743U 11033E   25099.19689630 -.00000091  00000+0  68948-4 0  9998
2 37743  51.9953  77.0104 0000501  95.2178 277.0028 12.62262585635510
GLOBALSTAR M089         
1 37744U 11033F   25099.26991422 -.00000092  00000+0  66836-4 0  9997
2 37744  51.9957  31.0292 0000326  86.3325  78.2647 12.62268324636238
GLOBALSTAR M084         
1 38040U 11080A   25098.80266306 -.00000086  00000+0  99367-4 0  9992
2 38040  52.0001 259.7056 0000567 127.5453  12.3514 12.62264716613906
GLOBALSTAR M080         
1 38041U 11080B   25099.17921429 -.00000093  00000+0  58263-4 0  9996
2 38041  52.0054 260.1420 0000818 140.1315  31.6778 12.62291686614210
GLOBALSTAR M082         
1 38042U 11080C   25099.03457956 -.00000109  00000+0 -29887-4 0  9990
2 38042  52.0069 216.0196 0000821  85.1844  89.4238 12.62264938614937
GLOBALSTAR M092         
1 38043U 11080D   25098.89312789 -.00000056  00000+0  26772-3 0  9997
2 38043  52.0090 306.8244 0000726  91.0031 281.0117 12.62262367613201
GLOBALSTAR M090         
1 38044U 11080E   25099.06050257 -.00000107  00000+0 -17705-4 0  9992
2 38044  51.9880 209.8385 0000724 105.8238  66.2741 12.62268888614926
GLOBALSTAR M086         
1 38045U 11080F   25099.08700367 -.00000107  00000+0 -18948-4 0  9999
2 38045  51.9893 210.3033 0001390 147.1772  25.8168 12.62269026614930
GLOBALSTAR M097         
1 39072U 13005A   25099.07554121 -.00000083  00000+0  11560-3 0  9997
2 39072  52.0022 124.8144 0000518 111.6545 248.4377 12.62271641562162
GLOBALSTAR M093         
1 39073U 13005B   25098.73210346 -.00000083  00000+0  11423-3 0  9996
2 39073  51.9787 119.2714 0000480 106.1265 253.9655 12.62263531561995
GLOBALSTAR M094         
1 39074U 13005C   25098.89065410 -.00000102  00000+0  10155-4 0  9998
2 39074  51.9983  33.1008 0000812  87.6719 272.4241 12.62269475563622
GLOBALSTAR M096         
1 39075U 13005D   25099.22065291 -.00000087  00000+0  95574-4 0  9994
2 39075  52.0065  80.5570 0000648  82.3644 277.7297 12.62270066562932
GLOBALSTAR M078         
1 39076U 13005E   25099.19379560  .00000018  00000+0  67987-3 0  9997
2 39076  51.9859 165.2430 0001033  52.4430 307.6530 12.62261228561413
GLOBALSTAR M095         
1 39077U 13005F   25099.14127254 -.00000079  00000+0  13606-3 0  9991
2 39077  51.9785 162.6358 0000817  86.7069 273.3891 12.62268799561418
GLOBALSTAR M087         
1 52888U 22064A   25098.85517812 -.00000066  00000+0  21359-3 0  9991
2 52888  51.9797 304.9114 0000942  88.4814 271.6160 12.62270616136287
